{"type": "FeatureCollection", "features": [ {"type": "Feature", "properties": {"norad_id": 30814, "name": "FENGYUN 1C DEB", "group": "fengyun-1c-debris", "lat": 54.64443158825428, "lon": 152.59996947436662, "alt_km": 697.5360182628083, "timestamp": "2025-12-09T11:33:55.078685+00:00", "meta": {"OBJECT_NAME": "FENGYUN 1C DEB", "OBJECT_ID": "1999-025AUY", "EPOCH": "2025-12-08T22:05:27.667104", "MEAN_MOTION": 14.60266227, "ECCENTRICITY": 0.003049, "INCLINATION": 99.0829, "RA_OF_ASC_NODE": 318.9544, "ARG_OF_PERICENTER": 245.2435, "MEAN_ANOMALY": 169.5969, "EPHEMERIS_TYPE": 0, "CLASSIFICATION_TYPE": "U", "NORAD_CAT_ID": 30814, "ELEMENT_SET_NO": 999, "REV_AT_EPOCH": 97686, "BSTAR": 0.0035575, "MEAN_MOTION_DOT": 0.00017268, "MEAN_MOTION_DDOT": 0}, "tle": {"line1": "1 30814U 99025AUY 25342.92045911  .00017268  00000+0  35575-2 0  9998", "line2": "2 30814  99.0829 318.9544 0030490 245.2435 169.5969 14.60266227976867"}}, "geometry": {"type": "Point", "coordinates": [152.59996947436662, 54.64443158825428]}}, {"type": "Feature", "properties": {"norad_id": 30815, "name": "FENGYUN 1C DEB", "group": "fengyun-1c-debris", "lat": -5.070358578276359, "lon": 139.74986242993978, "alt_km": 654.0446103472814, "timestamp": "2025-12-09T11:33:55.078699+00:00", "meta": {"OBJECT_NAME": "FENGYUN 1C DEB", "OBJECT_ID": "1999-025AUZ", "EPOCH": "2025-12-08T09:45:16.205184", "MEAN_MOTION": 14.73211211, "ECCENTRICITY": 0.00023576, "INCLINATION": 99.3013, "RA_OF_ASC_NODE": 137.6859, "ARG_OF_PERICENTER": 274.6378, "MEAN_ANOMALY": 139.7918, "EPHEMERIS_TYPE": 0, "CLASSIFICATION_TYPE": "U", "NORAD_CAT_ID": 30815, "ELEMENT_SET_NO": 999, "REV_AT_EPOCH": 97716, "BSTAR": 0.0047427966, "MEAN_MOTION_DOT": 0.00030686, "MEAN_MOTION_DDOT": 0}, "tle": {"line1": "1 30815U 99025AUZ 25342.40643756  .00030686  00000+0  47428-2 0  9992", "line2": "2 30815  99.3013 137.6859 0002357 274.6378 139.7918 14.73211211977168"}}, "geometry": {"type": "Point", "coordinates": [139.74986242993978, -5.070358578276359]}}, {"type": "Feature", "properties": {"norad_id": 30816, "name": "FENGYUN 1C DEB", "group": "fengyun-1c-debris", "lat": -78.03394869117362, "lon": -173.83253264221813, "alt_km": 875.7871772438339, "timestamp": "2025-12-09T11:33:55.078709+00:00", "meta": {"OBJECT_NAME": "FENGYUN 1C DEB", "OBJECT_ID": "1999-025AVA", "EPOCH": "2025-12-09T03:50:45.804768", "MEAN_MOTION": 14.17972023, "ECCENTRICITY": 0.0052671, "INCLINATION": 98.9145, "RA_OF_ASC_NODE": 53.6248, "ARG_OF_PERICENTER": 65.6862, "MEAN_ANOMALY": 355.5322, "EPHEMERIS_TYPE": 0, "CLASSIFICATION_TYPE": "U", "NORAD_CAT_ID": 30816, "ELEMENT_SET_NO": 999, "REV_AT_EPOCH": 96343, "BSTAR": 0.0018994, "MEAN_MOTION_DOT": 3.898e-05, "MEAN_MOTION_DDOT": 0}, "tle": {"line1": "1 30816U 99025AVA 25343.16025237  .00003898  00000+0  18994-2 0  9996", "line2": "2 30816  98.9145  53.6248 0052671  65.6862 355.5322 14.17972023963434"}}, "geometry": {"type": "Point", "coordinates": [-173.83253264221813, -78.03394869117362]}}, {"type": "Feature", "properties": {"norad_id": 30817, "name": "FENGYUN 1C DEB", "group": "fengyun-1c-debris", "lat": -7.84281484698389, "lon": 152.5982931137119, "alt_km": 878.1756213115514, "timestamp": "2025-12-09T11:33:55.078719+00:00", "meta": {"OBJECT_NAME": "FENGYUN 1C DEB", "OBJECT_ID": "1999-025AVB", "EPOCH": "2025-12-08T22:39:54.215136", "MEAN_MOTION": 14.00715997, "ECCENTRICITY": 0.0057343, "INCLINATION": 98.7857, "RA_OF_ASC_NODE": 333.3021, "ARG_OF_PERICENTER": 255.5684, "MEAN_ANOMALY": 103.9114, "EPHEMERIS_TYPE": 0, "CLASSIFICATION_TYPE": "U", "NORAD_CAT_ID": 30817, "ELEMENT_SET_NO": 999, "REV_AT_EPOCH": 95856, "BSTAR": 0.00038319, "MEAN_MOTION_DOT": 5.37e-06, "MEAN_MOTION_DDOT": 0}, "tle": {"line1": "1 30817U 99025AVB 25342.94437749  .00000537  00000+0  38319-3 0  9998", "line2": "2 30817  98.7857 333.3021 0057343 255.5684 103.9114 14.00715997958562"}}, "geometry": {"type": "Point", "coordinates": [152.5982931137119, -7.84281484698389]}}, {"type": "Feature", "properties": {"norad_id": 30820, "name": "FENGYUN 1C DEB", "group": "fengyun-1c-debris", "lat": 9.0960424397494, "lon": -98.76122733582031, "alt_km": 788.6220989718449, "timestamp": "2025-12-09T11:33:55.078729+00:00", "meta": {"OBJECT_NAME": "FENGYUN 1C DEB", "OBJECT_ID": "1999-025AVE", "EPOCH": "2025-12-08T12:53:49.079040", "MEAN_MOTION": 14.21345836, "ECCENTRICITY": 0.00520408, "INCLINATION": 98.676, "RA_OF_ASC_NODE": 78.91, "ARG_OF_PERICENTER": 199.103, "MEAN_ANOMALY": 181.6146, "EPHEMERIS_TYPE": 0, "CLASSIFICATION_TYPE": "U", "NORAD_CAT_ID": 30820, "ELEMENT_SET_NO": 999, "REV_AT_EPOCH": 96364, "BSTAR": 0.0030032293, "MEAN_MOTION_DOT": 6.605e-05, "MEAN_MOTION_DDOT": 0}, "tle": {"line1": "1 30820U 99025AVE 25342.53737360  .00006605  00000+0  30032-2 0  9994", "line2": "2 30820  98.6760  78.9100 0052040 199.1030 181.6146 14.21345836963642"}}, "geometry": {"type": "Point", "coordinates": [-98.76122733582031, 9.0960424397494]}}, {"type": "Feature", "properties": {"norad_id": 30821, "name": "FENGYUN 1C DEB", "group": "fengyun-1c-debris", "lat": -68.44513986677991, "lon": -78.15024389114338, "alt_km": 683.5470631691906, "timestamp": "2025-12-09T11:33:55.078739+00:00", "meta": {"OBJECT_NAME": "FENGYUN 1C DEB", "OBJECT_ID": "1999-025AVF", "EPOCH": "2025-12-01T08:43:29.259840", "MEAN_MOTION": 14.49523426, "ECCENTRICITY": 0.00862987, "INCLINATION": 99.1021, "RA_OF_ASC_NODE": 117.0363, "ARG_OF_PERICENTER": 240.0336, "MEAN_ANOMALY": 149.0962, "EPHEMERIS_TYPE": 0, "CLASSIFICATION_TYPE": "U", "NORAD_CAT_ID": 30821, "ELEMENT_SET_NO": 999, "REV_AT_EPOCH": 98624, "BSTAR": 0.0010654422, "MEAN_MOTION_DOT": 4.23e-05, "MEAN_MOTION_DDOT": 0}, "tle": {"line1": "1 30821U 99025AVF 25335.36353310  .00004230  00000+0  10654-2 0  9997", "line2": "2 30821  99.1021 117.0363 0086298 240.0336 149.0962 14.49523426986240"}}, "geometry": {"type": "Point", "coordinates": [-78.15024389114338, -68.44513986677991]}}, {"type": "Feature", "properties": {"norad_id": 30822, "name": "FENGYUN 1C DEB", "group": "fengyun-1c-debris", "lat": -71.16838456305786, "lon": 164.83569978447215, "alt_km": 822.2851586549186, "timestamp": "2025-12-09T11:33:55.078749+00:00", "meta": {"OBJECT_NAME": "FENGYUN 1C DEB", "OBJECT_ID": "1999-025AVG", "EPOCH": "2025-12-09T00:28:25.467744", "MEAN_MOTION": 14.11333896, "ECCENTRICITY": 0.0073133, "INCLINATION": 98.7356, "RA_OF_ASC_NODE": 11.1833, "ARG_OF_PERICENTER": 296.0415, "MEAN_ANOMALY": 130.9558, "EPHEMERIS_TYPE": 0, "CLASSIFICATION_TYPE": "U", "NORAD_CAT_ID": 30822, "ELEMENT_SET_NO": 999, "REV_AT_EPOCH": 96649, "BSTAR": 0.00050635, "MEAN_MOTION_DOT": 8.95e-06, "MEAN_MOTION_DDOT": 0}, "tle": {"line1": "1 30822U 99025AVG 25343.01973921  .00000895  00000+0  50635-3 0  9992", "line2": "2 30822  98.7356  11.1833 0073133 296.0415 130.9558 14.11333896966490"}}, "geometry": {"type": "Point", "coordinates": [164.83569978447215, -71.16838456305786]}}, {"type": "Feature", "properties": {"norad_id": 30823, "name": "FENGYUN 1C DEB", "group": "fengyun-1c-debris", "lat": 80.94417868958527, "lon": 19.998301886633023, "alt_km": 780.1797109559175, "timestamp": "2025-12-09T11:33:55.078759+00:00", "meta": {"OBJECT_NAME": "FENGYUN 1C DEB", "OBJECT_ID": "1999-025AVH", "EPOCH": "2025-12-08T22:02:43.990080", "MEAN_MOTION": 14.02547406, "ECCENTRICITY": 0.0134048, "INCLINATION": 98.762, "RA_OF_ASC_NODE": 124.0719, "ARG_OF_PERICENTER": 95.2418, "MEAN_ANOMALY": 34.3276, "EPHEMERIS_TYPE": 0, "CLASSIFICATION_TYPE": "U", "NORAD_CAT_ID": 30823, "ELEMENT_SET_NO": 999, "REV_AT_EPOCH": 95980, "BSTAR": 0.00070554, "MEAN_MOTION_DOT": 1.135e-05, "MEAN_MOTION_DDOT": 0}, "tle": {"line1": "1 30823U 99025AVH 25342.91856470  .00001135  00000+0  70554-3 0  9990", "line2": "2 30823  98.7620 124.0719 0134048  95.2418  34.3276 14.02547406959802"}}, "geometry": {"type": "Point", "coordinates": [19.998301886633023, 80.94417868958527]}}, {"type": "Feature", "properties": {"norad_id": 30826, "name": "FENGYUN 1C DEB", "group": "fengyun-1c-debris", "lat": 2.433701528453297, "lon": 177.7607320135835, "alt_km": 523.4040357299355, "timestamp": "2025-12-09T11:33:55.078769+00:00", "meta": {"OBJECT_NAME": "FENGYUN 1C DEB", "OBJECT_ID": "1999-025AVL", "EPOCH": "2025-12-08T19:25:32.621376", "MEAN_MOTION": 14.8217709, "ECCENTRICITY": 0.01457046, "INCLINATION": 98.8668, "RA_OF_ASC_NODE": 177.3962, "ARG_OF_PERICENTER": 9.2871, "MEAN_ANOMALY": 7.2935, "EPHEMERIS_TYPE": 0, "CLASSIFICATION_TYPE": "U", "NORAD_CAT_ID": 30826, "ELEMENT_SET_NO": 999, "REV_AT_EPOCH": 228, "BSTAR": 0.00075815555, "MEAN_MOTION_DOT": 7.201e-05, "MEAN_MOTION_DDOT": 0}, "tle": {"line1": "1 30826U 99025AVL 25342.80940534  .00007201  00000+0  75816-3 0  9992", "line2": "2 30826  98.8668 177.3962 0145704   9.2871   7.2935 14.82177090  2286"}}, "geometry": {"type": "Point", "coordinates": [177.7607320135835, 2.433701528453297]}}, {"type": "Feature", "properties": {"norad_id": 30827, "name": "FENGYUN 1C DEB", "group": "fengyun-1c-debris", "lat": -42.95704024461702, "lon": -22.76503767593778, "alt_km": 791.541933493123, "timestamp": "2025-12-09T11:33:55.078779+00:00", "meta": {"OBJECT_NAME": "FENGYUN 1C DEB", "OBJECT_ID": "1999-025AVM", "EPOCH": "2025-12-06T16:57:25.317792", "MEAN_MOTION": 14.37646401, "ECCENTRICITY": 0.00434348, "INCLINATION": 99.0032, "RA_OF_ASC_NODE": 325.8407, "ARG_OF_PERICENTER": 196.8471, "MEAN_ANOMALY": 163.1274, "EPHEMERIS_TYPE": 0, "CLASSIFICATION_TYPE": "U", "NORAD_CAT_ID": 30827, "ELEMENT_SET_NO": 999, "REV_AT_EPOCH": 96462, "BSTAR": 0.0045362734, "MEAN_MOTION_DOT": 0.00013752, "MEAN_MOTION_DDOT": 0}, "tle": {"line1": "1 30827U 99025AVM 25340.70654303  .00013752  00000+0  45363-2 0  9997", "line2": "2 30827  99.0032 325.8407 0043434 196.8471 163.1274 14.37646401964625"}}, "geometry": {"type": "Point", "coordinates": [-22.76503767593778, -42.95704024461702]}}]}